{
  "type": "FeatureCollection",
  "features": [
    {
      "type": "Feature",
      "properties": {
        "norad_id": 34907,
        "name": "COSMOS 2251 DEB",
        "group": "cosmos-2251-debris",
        "lat": -50.83605174071357,
        "lon": 16.43631448116401,
        "alt_km": 418.4082744226207,
        "timestamp": "2025-12-17T21:39:46.084941+00:00",
        "meta_object_name": "COSMOS 2251 DEB",
        "meta_object_id": "1993-036ADC",
        "meta_epoch": "2025-12-17T09:28:50.076192",
        "meta_mean_motion": 15.47239939,
        "meta_eccentricity": 0.00198039,
        "meta_inclination": 73.9687,
        "meta_ra_of_asc_node": 38.2214,
        "meta_arg_of_pericenter": 334.3909,
        "meta_mean_anomaly": 25.6319,
        "meta_ephemeris_type": 0,
        "meta_classification_type": "U",
        "meta_norad_cat_id": 34907,
        "meta_element_set_no": 999,
        "meta_rev_at_epoch": 88045,
        "meta_bstar": 0.0063162764,
        "meta_mean_motion_dot": 0.00338134,
        "meta_mean_motion_ddot": 0,
        "tle_line1": "1 34907U 93036ADC 25351.39502403  .00338134  00000+0  63163-2 0  9998",
        "tle_line2": "2 34907  73.9687  38.2214 0019803 334.3909  25.6319 15.47239939880450"
      },
      "geometry": {
        "type": "Point",
        "coordinates": [
          16.43631448116401,
          -50.83605174071357
        ]
      }
    },
    {
      "type": "Feature",
      "properties": {
        "norad_id": 34908,
        "name": "COSMOS 2251 DEB",
        "group": "cosmos-2251-debris",
        "lat": 37.209834161929905,
        "lon": -178.36541932181876,
        "alt_km": 774.813207451195,
        "timestamp": "2025-12-17T21:39:46.084950+00:00",
        "meta_object_name": "COSMOS 2251 DEB",
        "meta_object_id": "1993-036ADD",
        "meta_epoch": "2025-12-17T07:43:17.668128",
        "meta_mean_motion": 14.37411471,
        "meta_eccentricity": 0.00402486,
        "meta_inclination": 74.0581,
        "meta_ra_of_asc_node": 15.2366,
        "meta_arg_of_pericenter": 29.9101,
        "meta_mean_anomaly": 345.9244,
        "meta_ephemeris_type": 0,
        "meta_classification_type": "U",
        "meta_norad_cat_id": 34908,
        "meta_element_set_no": 999,
        "meta_rev_at_epoch": 87345,
        "meta_bstar": 0.00043107279,
        "meta_mean_motion_dot": 1.275e-05,
        "meta_mean_motion_ddot": 0,
        "tle_line1": "1 34908U 93036ADD 25351.32173227  .00001275  00000+0  43107-3 0  9990",
        "tle_line2": "2 34908  74.0581  15.2366 0040248  29.9101 345.9244 14.37411471873455"
      },
      "geometry": {
        "type": "Point",
        "coordinates": [
          -178.36541932181876,
          37.209834161929905
        ]
      }
    },
    {
      "type": "Feature",
      "properties": {
        "norad_id": 34909,
        "name": "COSMOS 2251 DEB",
        "group": "cosmos-2251-debris",
        "lat": -50.86034782075458,
        "lon": 45.798558540475646,
        "alt_km": 657.6915433348995,
        "timestamp": "2025-12-17T21:39:46.084959+00:00",
        "meta_object_name": "COSMOS 2251 DEB",
        "meta_object_id": "1993-036ADE",
        "meta_epoch": "2025-12-16T23:09:48.199680",
        "meta_mean_motion": 14.77871618,
        "meta_eccentricity": 0.00842379,
        "meta_inclination": 74.015,
        "meta_ra_of_asc_node": 68.2645,
        "meta_arg_of_pericenter": 203.1131,
        "meta_mean_anomaly": 156.6247,
        "meta_ephemeris_type": 0,
        "meta_classification_type": "U",
        "meta_norad_cat_id": 34909,
        "meta_element_set_no": 999,
        "meta_rev_at_epoch": 66914,
        "meta_bstar": 0.0004301691,
        "meta_mean_motion_dot": 3.247e-05,
        "meta_mean_motion_ddot": 0,
        "tle_line1": "1 34909U 93036ADE 25350.96514120  .00003247  00000+0  43017-3 0  9992",
        "tle_line2": "2 34909  74.0150  68.2645 0084237 203.1131 156.6247 14.77871618669147"
      },
      "geometry": {
        "type": "Point",
        "coordinates": [
          45.798558540475646,
          -50.86034782075458
        ]
      }
    },
    {
      "type": "Feature",
      "properties": {
        "norad_id": 34910,
        "name": "COSMOS 2251 DEB",
        "group": "cosmos-2251-debris",
        "lat": 3.0438497764269705,
        "lon": -87.60356712757287,
        "alt_km": 826.145808484469,
        "timestamp": "2025-12-17T21:39:46.084969+00:00",
        "meta_object_name": "COSMOS 2251 DEB",
        "meta_object_id": "1993-036ADF",
        "meta_epoch": "2025-12-16T00:48:30.580128",
        "meta_mean_motion": 13.37690746,
        "meta_eccentricity": 0.04679747,
        "meta_inclination": 73.876,
        "meta_ra_of_asc_node": 96.2259,
        "meta_arg_of_pericenter": 214.6056,
        "meta_mean_anomaly": 328.1497,
        "meta_ephemeris_type": 0,
        "meta_classification_type": "U",
        "meta_norad_cat_id": 34910,
        "meta_element_set_no": 999,
        "meta_rev_at_epoch": 81568,
        "meta_bstar": 0.0011529423,
        "meta_mean_motion_dot": 1.118e-05,
        "meta_mean_motion_ddot": 0,
        "tle_line1": "1 34910U 93036ADF 25350.03368727  .00001118  00000+0  11529-2 0  9999",
        "tle_line2": "2 34910  73.8760  96.2259 0467974 214.6056 328.1497 13.37690746815682"
      },
      "geometry": {
        "type": "Point",
        "coordinates": [
          -87.60356712757287,
          3.0438497764269705
        ]
      }
    },
    {
      "type": "Feature",
      "properties": {
        "norad_id": 34911,
        "name": "COSMOS 2251 DEB",
        "group": "cosmos-2251-debris",
        "lat": 55.26071380883657,
        "lon": -100.72181113640478,
        "alt_km": 659.3744279936227,
        "timestamp": "2025-12-17T21:39:46.084978+00:00",
        "meta_object_name": "COSMOS 2251 DEB",
        "meta_object_id": "1993-036ADG",
        "meta_epoch": "2025-12-16T17:41:35.979072",
        "meta_mean_motion": 14.5937892,
        "meta_eccentricity": 0.00837784,
        "meta_inclination": 74.0408,
        "meta_ra_of_asc_node": 237.1259,
        "meta_arg_of_pericenter": 1.5152,
        "meta_mean_anomaly": 56.2487,
        "meta_ephemeris_type": 0,
        "meta_classification_type": "U",
        "meta_norad_cat_id": 34911,
        "meta_element_set_no": 999,
        "meta_rev_at_epoch": 88645,
        "meta_bstar": 0.00013641579,
        "meta_mean_motion_dot": 6.46e-06,
        "meta_mean_motion_ddot": 0,
        "tle_line1": "1 34911U 93036ADG 25350.73722198  .00000646  00000+0  13642-3 0  9997",
        "tle_line2": "2 34911  74.0408 237.1259 0083778   1.5152  56.2487 14.59378920886450"
      },
      "geometry": {
        "type": "Point",
        "coordinates": [
          -100.72181113640478,
          55.26071380883657
        ]
      }
    },
    {
      "type": "Feature",
      "properties": {
        "norad_id": 34913,
        "name": "COSMOS 2251 DEB",
        "group": "cosmos-2251-debris",
        "lat": -36.94990312450617,
        "lon": -99.40361249251747,
        "alt_km": 774.9240781956414,
        "timestamp": "2025-12-17T21:39:46.084987+00:00",
        "meta_object_name": "COSMOS 2251 DEB",
        "meta_object_id": "1993-036ADJ",
        "meta_epoch": "2025-12-17T12:37:27.083424",
        "meta_mean_motion": 14.34638966,
        "meta_eccentricity": 0.00205447,
        "meta_inclination": 74.0284,
        "meta_ra_of_asc_node": 273.7265,
        "meta_arg_of_pericenter": 22.3258,
        "meta_mean_anomaly": 154.9799,
        "meta_ephemeris_type": 0,
        "meta_classification_type": "U",
        "meta_norad_cat_id": 34913,
        "meta_element_set_no": 999,
        "meta_rev_at_epoch": 65256,
        "meta_bstar": 4.1360926e-05,
        "meta_mean_motion_dot": 9.1e-07,
        "meta_mean_motion_ddot": 0,
        "tle_line1": "1 34913U 93036ADJ 25351.52600791  .00000091  00000+0  41361-4 0  9995",
        "tle_line2": "2 34913  74.0284 273.7265 0020544  22.3258 154.9799 14.34638966652564"
      },
      "geometry": {
        "type": "Point",
        "coordinates": [
          -99.40361249251747,
          -36.94990312450617
        ]
      }
    },
    {
      "type": "Feature",
      "properties": {
        "norad_id": 34918,
        "name": "COSMOS 2251 DEB",
        "group": "cosmos-2251-debris",
        "lat": -58.09325333623131,
        "lon": 151.08194204160446,
        "alt_km": 674.9550849041652,
        "timestamp": "2025-12-17T21:39:46.084996+00:00",
        "meta_object_name": "COSMOS 2251 DEB",
        "meta_object_id": "1993-036ADP",
        "meta_epoch": "2025-12-16T13:53:46.052736",
        "meta_mean_motion": 14.61269295,
        "meta_eccentricity": 0.00334369,
        "meta_inclination": 74.0708,
        "meta_ra_of_asc_node": 306.3024,
        "meta_arg_of_pericenter": 273.1328,
        "meta_mean_anomaly": 208.8551,
        "meta_ephemeris_type": 0,
        "meta_classification_type": "U",
        "meta_norad_cat_id": 34918,
        "meta_element_set_no": 999,
        "meta_rev_at_epoch": 65392,
        "meta_bstar": 0.0014489759,
        "meta_mean_motion_dot": 7.183e-05,
        "meta_mean_motion_ddot": 0,
        "tle_line1": "1 34918U 93036ADP 25350.57900524  .00007183  00000+0  14490-2 0  9991",
        "tle_line2": "2 34918  74.0708 306.3024 0033436 273.1328 208.8551 14.61269295653925"
      },
      "geometry": {
        "type": "Point",
        "coordinates": [
          151.08194204160446,
          -58.09325333623131
        ]
      }
    }
  ]
}